[ {"name": "STARLINK-30959", "line1": "1 58442U 23183F   26164.84678486 -.00000666  00000+0 -14688-4 0  9990", "line2": "2 58442  42.9989 218.2909 0001173 273.4633  86.6084 15.27571794141441"}, {"name": "STARLINK-30971", "line1": "1 58443U 23183G   26164.43918766  .00000583  00000+0  30708-4 0  9991", "line2": "2 58443  43.0018 221.2430 0001493 270.5035  89.5646 15.27580811141377"}, {"name": "STARLINK-30963", "line1": "1 58444U 23183H   26164.85063927 -.00000461  00000+0 -72240-5 0  9993", "line2": "2 58444  43.0003 218.3150 0001131 282.4337  77.6388 15.27573395141442"}, {"name": "STARLINK-30961", "line1": "1 58445U 23183J   26164.85449384 -.00000194  00000+0  24563-5 0  9996", "line2": "2 58445  43.0005 218.3431 0000916 271.6379  88.4368 15.27572672141448"}, {"name": "STARLINK-30975", "line1": "1 58446U 23183K   26164.85322670  .00011228  00000+0  41741-3 0  9999", "line2": "2 58446  43.0002 218.3279 0000923 270.7068  89.3678 15.27542284141461"}, {"name": "STARLINK-30976", "line1": "1 58447U 23183L   26164.86606904 -.00000327  00000+0 -23430-5 0  9993", "line2": "2 58447  43.0037 218.4632 0001646 267.8348  92.2315 15.27574870141440"}, {"name": "STARLINK-30926", "line1": "1 58448U 23183M   26164.83906359  .00000559  00000+0  29819-4 0  9999", "line2": "2 58448  42.9957 218.1919 0001444 272.5346  87.5340 15.27578618141441"}, {"name": "STARLINK-30943", "line1": "1 58449U 23183N   26162.39729977  .00000156  00000+0  15186-4 0  9993", "line2": "2 58449  42.9899 206.5362 0000917 126.1108 233.9829 15.27576907141363"}, {"name": "STARLINK-30946", "line1": "1 58450U 23183P   26164.86734817 -.00000388  00000+0 -45988-5 0  9991", "line2": "2 58450  43.0007 218.4430 0000865 262.8546  97.2207 15.27575005141440"}, {"name": "STARLINK-30944", "line1": "1 58451U 23183Q   26164.85834443 -.00004185  00000+0 -14268-3 0  9991", "line2": "2 58451  42.9998 218.3773 0001369 276.4567  83.6128 15.27571416141411"}, {"name": "STARLINK-30928", "line1": "1 58452U 23183R   26164.86222440 -.00004234  00000+0 -14457-3 0  9996", "line2": "2 58452  43.0018 218.4050 0000721 273.0033  87.0736 15.27547581141439"}, {"name": "STARLINK-30957", "line1": "1 58453U 23183S   26164.85706189  .00000005  00000+0  97179-5 0  9997", "line2": "2 58453  43.0014 218.3668 0000934 281.8825  78.1922 15.27577813141442"}, {"name": "STARLINK-30966", "line1": "1 58454U 23183T   26164.86091060  .00001237  00000+0  54512-4 0  9995", "line2": "2 58454  43.0318 218.3907 0002750 272.9465  87.1072 15.27578878141443"}, {"name": "STARLINK-30935", "line1": "1 58455U 23183U   26164.43149861  .00000697  00000+0  34882-4 0  9999", "line2": "2 58455  43.0021 221.1873 0002986 280.7133  79.3382 15.27571132141374"}, {"name": "STARLINK-30958", "line1": "1 58457U 23183W   26164.64676535 -.00000769  00000+0 -18423-4 0  9992", "line2": "2 58457  43.0046 219.3634 0001045 299.2335  60.8412 15.27583844141418"}, {"name": "STARLINK-30962", "line1": "1 58458U 23183X   26164.83522808 -.00000955  00000+0 -25203-4 0  9998", "line2": "2 58458  43.0013 218.2027 0001376 275.2111  84.8583 15.27570006141444"}, {"name": "STARLINK-30977", "line1": "1 58459U 23183Y   26164.43533308  .00002564  00000+0  10266-3 0  9990", "line2": "2 58459  43.0020 221.2126 0002081 278.3847  81.6769 15.27584982141372"}, {"name": "STARLINK-30947", "line1": "1 58473U 23186A   26163.95135037  .00000556  00000+0  29720-4 0  9997", "line2": "2 58473  43.0021 249.2124 0001375 265.8999  94.1696 15.27578847140427"}, {"name": "STARLINK-30941", "line1": "1 58475U 23186C   26163.95391139 -.00000348  00000+0 -30691-5 0  9997", "line2": "2 58475  43.0201 249.2301 0003203 270.6629  89.3856 15.27576273140427"}, {"name": "STARLINK-30980", "line1": "1 58476U 23186D   26163.95774897  .00005951  00000+0  22536-3 0  9994", "line2": "2 58476  43.0050 249.2535 0002046 271.3387  88.7231 15.27614207140422"}, {"name": "STARLINK-30965", "line1": "1 58477U 23186E   26164.00002315  .00006531  00000+0  24670-3 0  9997", "line2": "2 58477  43.0026 233.9336 0001777 260.3326 132.2925 15.27572990  5670"}, {"name": "STARLINK-30990", "line1": "1 58478U 23186F   26164.66673079 -.00016906  00000+0 -60518-3 0  9991", "line2": "2 58478  43.0026 245.1176 0001275 274.2659  85.8047 15.27634945140570"}, {"name": "STARLINK-30984", "line1": "1 58480U 23186H   26163.91328558  .00001030  00000+0  46936-4 0  9999", "line2": "2 58480  42.9984 245.5100 0001707 285.6749  74.3914 15.27582806140463"}, {"name": "STARLINK-30956", "line1": "1 58481U 23186J   26164.42496626  .00000258  00000+0  18938-4 0  9991", "line2": "2 58481  43.0165 220.6249 0002763 284.5829  75.4716 15.27579918140793"}, {"name": "STARLINK-30997", "line1": "1 58482U 23186K   26163.94669392  .00015863  00000+0  58448-3 0  9997", "line2": "2 58482  43.0034 245.7317 0001280 266.6333  93.4372 15.27593634140460"}, {"name": "STARLINK-30994", "line1": "1 58483U 23186L   26164.46801325  .00055790  00000+0  17407-2 0  9992", "line2": "2 58483  42.9974  78.2635 0005529 201.4174 158.6449 15.32409840142466"}, {"name": "STARLINK-30991", "line1": "1 58484U 23186M   26163.91200048  .00002053  00000+0  84084-4 0  9998", "line2": "2 58484  43.0026 245.4997 0001713 271.7258  88.3397 15.27588710140445"}, {"name": "STARLINK-30979", "line1": "1 58485U 23186N   26164.67494579  .00001080  00000+0  48769-4 0  9996", "line2": "2 58485  43.0004 241.7764 0001118 311.8973  48.1783 15.27576993140568"}, {"name": "STARLINK-31005", "line1": "1 58486U 23186P   26164.66852830 -.00000560  00000+0 -10835-4 0  9991", "line2": "2 58486  43.0040 241.7223 0001722 262.2491  97.8165 15.27571147140565"}, {"name": "STARLINK-30987", "line1": "1 58487U 23186Q   26163.95311534  .00002135  00000+0  87068-4 0  9994", "line2": "2 58487  43.0010 245.8099 0001295 262.1200  97.9505 15.27586206140450"}, {"name": "STARLINK-31000", "line1": "1 58488U 23186R   26164.66079719  .00001300  00000+0  56787-4 0  9997", "line2": "2 58488  43.0069 241.6645 0003628 263.0234  97.0205 15.27582260140561"}, {"name": "STARLINK-30993", "line1": "1 58489U 23186S   26163.94541665  .00000551  00000+0  29528-4 0  9992", "line2": "2 58489  42.9922 245.7566 0000572 258.4421 101.6366 15.27579142140459"}, {"name": "STARLINK-30978", "line1": "1 58490U 23186T   26163.93513415  .00001222  00000+0  53898-4 0  9998", "line2": "2 58490  43.0057 245.6809 0000850 255.5110 104.5647 15.27585055140457"}, {"name": "STARLINK-30953", "line1": "1 58491U 23186U   26164.50341223 -.00000194  00000+0  24634-5 0  9994", "line2": "2 58491  43.0015  86.3953 0000774 268.2008  91.8755 15.27575037142543"}, {"name": "STARLINK-30986", "line1": "1 58492U 23186V   26163.53896660  .00001183  00000+0  52500-4 0  9997", "line2": "2 58492  43.0077 247.8680 0001034 275.0031  85.0703 15.27578291140399"}, {"name": "STARLINK-30985", "line1": "1 58493U 23186W   26164.70821632 -.00000044  00000+0  79114-5 0  9992", "line2": "2 58493  43.0005 241.1569 0001468 268.0290  92.0393 15.27569066140577"}, {"name": "STARLINK-30981", "line1": "1 58494U 23186X   26164.50822059 -.00002859  00000+0 -94509-4 0  9996", "line2": "2 58494  43.0025 242.2363 0001155 266.7424  93.3295 15.27552719140540"}, {"name": "STARLINK-31002", "line1": "1 58495U 23186Y   26164.48264045 -.00000468  00000+0 -74711-5 0  9997", "line2": "2 58495  43.0008 242.9036 0001677 273.8256  86.2404 15.27574133140702"}, {"name": "STARLINK-31026", "line1": "1 58508U 23191A   26164.64074251 -.00000613  00000+0 -12757-4 0  9997", "line2": "2 58508  43.0045 288.5492 0000344 293.7473  66.3343 15.27570815140065"}, {"name": "STARLINK-31020", "line1": "1 58509U 23191B   26164.62916497  .00003494  00000+0  13645-3 0  9997", "line2": "2 58509  42.9957 288.4671 0000762 131.7597 228.3320 15.27574202140065"}, {"name": "STARLINK-30989", "line1": "1 58510U 23191C   26164.05837158  .00000693  00000+0  34723-4 0  9991", "line2": "2 58510  43.0149 285.1121 0003179 272.6798  87.3690 15.27581041140083"}, {"name": "STARLINK-30968", "line1": "1 58511U 23191D   26164.06225408 -.00000986  00000+0 -26316-4 0  9998", "line2": "2 58511  43.0053 285.1425 0001889 286.8911  73.1734 15.27564725140054"}, {"name": "STARLINK-30982", "line1": "1 58512U 23191E   26164.06608506  .00001425  00000+0  61291-4 0  9991", "line2": "2 58512  43.0062 285.1679 0001812 280.3981  79.6666 15.27585619140058"}, {"name": "STARLINK-30998", "line1": "1 58513U 23191F   26164.78790727  .00002341  00000+0  94556-4 0  9996", "line2": "2 58513  43.0039 281.1287 0001878 275.9517  84.1121 15.27585328140190"}, {"name": "STARLINK-30983", "line1": "1 58514U 23191G   26164.75965360 -.00004132  00000+0 -14077-3 0  9992", "line2": "2 58514  43.0010 280.9128 0001382 257.1494 102.9203 15.27568027139811"}, {"name": "STARLINK-31017", "line1": "1 58515U 23191H   26164.37973462 -.00000335  00000+0 -26643-5 0  9998", "line2": "2 58515  42.9930  50.7524 0001659 284.5253  75.5414 15.27575600142816"}, {"name": "STARLINK-31028", "line1": "1 58516U 23191J   26164.60059848  .00000498  00000+0  27662-4 0  9997", "line2": "2 58516  43.0296 281.4498 0002663 286.3898  73.6662 15.27579002140146"}, {"name": "STARLINK-31011", "line1": "1 58517U 23191K   26164.59675030 -.00000668  00000+0 -14743-4 0  9990", "line2": "2 58517  43.0036 281.4135 0001769 263.6955  96.3695 15.27570080140140"}, {"name": "STARLINK-31021", "line1": "1 58518U 23191L   26164.77378312  .00001186  00000+0  52637-4 0  9992", "line2": "2 58518  42.9947 281.0026 0001313  54.1484 305.9490 15.27574983140160"}, {"name": "STARLINK-31010", "line1": "1 58519U 23191M   26164.33335648  .00026472  00000+0  96877-3 0  9998", "line2": "2 58519  43.0028 283.3994 0001517 270.5011 206.0108 15.27555322  5778"}, {"name": "STARLINK-31003", "line1": "1 58520U 23191N   26163.61468521  .00023595  00000+0  86546-3 0  9992", "line2": "2 58520  43.0017 286.9412 0000842 241.7018 118.3749 15.27532787139997"}, {"name": "STARLINK-31015", "line1": "1 58521U 23191P   26164.59931689  .00023264  00000+0  85188-3 0  9995", "line2": "2 58521  43.0099 281.4422 0000900 120.1029 239.9912 15.27594807140115"}]